ORBCOMM FM33            
1 25983U 99065D   24218.52360341  .00002291  00000+0  79578-3 0  9999
2 25983  45.0291  57.7229 0008175 268.4406  91.5506 14.38045386290664
ORBCOMM FM36            
1 25984U 99065E   24218.82935365  .00002875  00000+0  10292-2 0  9992
2 25984  45.0389 143.2559 0002109 140.1920 219.9083 14.35969358289641
ORBCOMM FM35            
1 25985U 99065F   24218.13451197  .00002330  00000+0  85236-3 0  9990
2 25985  45.0388 149.5001 0003718 277.4799  82.5626 14.35439511289535
ORBCOMM FM34            
1 25986U 99065G   24218.52413076  .00002082  00000+0  76690-3 0  9996
2 25986  45.0382 148.2107 0002670 220.8589 139.2058 14.35422689289557
ORBCOMM FM38            
1 33060U 08031A   24218.51548311  .00004366  00000+0  62493-3 0  9994
2 33060  48.4419  16.4209 0005032 134.9485 225.1838 14.78130129867983
ORBCOMM FM41            
1 33061U 08031B   24218.86912022  .00004299  00000+0  61986-3 0  9998
2 33061  48.4452  21.5734 0004081 122.2813 351.1710 14.77853037867987
ORBCOMM FM29            
1 33062U 08031C   24218.51119883  .00004381  00000+0  63180-3 0  9995
2 33062  48.4401  31.3028 0005947 116.1532 295.8134 14.77804137867799
ORBCOMM FM39            
1 33063U 08031D   24218.79873642  .00003656  00000+0  54539-3 0  9998
2 33063  48.4407  51.1425 0006788  88.7729 271.3963 14.76729607867553
