<?xml version="1.0" encoding="UTF-8"?>
<ndm xmlns:xsi="http://www.w3.org/2001/XMLSchema-instance" xsi:noNamespaceSchemaLocation="https://sanaregistry.org/r/ndmxml_unqualified/ndmxml-2.0.0-master-2.0.xsd">
<omm id="CCSDS_OMM_VERS" version="2.0">
<header><CREATION_DATE/><ORIGINATOR/></header><body><segment><metadata><OBJECT_NAME>ORBCOMM FM33</OBJECT_NAME><OBJECT_ID>1999-065D</OBJECT_ID><CENTER_NAME>EARTH</CENTER_NAME><REF_FRAME>TEME</REF_FRAME><TIME_SYSTEM>UTC</TIME_SYSTEM><MEAN_ELEMENT_THEORY>SGP4</MEAN_ELEMENT_THEORY></metadata><data><meanElements><EPOCH>2024-08-05T12:33:59.334624</EPOCH><MEAN_MOTION>14.38045386</MEAN_MOTION><ECCENTRICITY>.0008175</ECCENTRICITY><INCLINATION>45.0291</INCLINATION><RA_OF_ASC_NODE>57.7229</RA_OF_ASC_NODE><ARG_OF_PERICENTER>268.4406</ARG_OF_PERICENTER><MEAN_ANOMALY>91.5506</MEAN_ANOMALY></meanElements><tleParameters><EPHEMERIS_TYPE>0</EPHEMERIS_TYPE><CLASSIFICATION_TYPE>U</CLASSIFICATION_TYPE><NORAD_CAT_ID>25983</NORAD_CAT_ID><ELEMENT_SET_NO>999</ELEMENT_SET_NO><REV_AT_EPOCH>29066</REV_AT_EPOCH><BSTAR>.79578E-3</BSTAR><MEAN_MOTION_DOT>.2291E-4</MEAN_MOTION_DOT><MEAN_MOTION_DDOT>0</MEAN_MOTION_DDOT></tleParameters></data></segment></body></omm>
<omm id="CCSDS_OMM_VERS" version="2.0">
<header><CREATION_DATE/><ORIGINATOR/></header><body><segment><metadata><OBJECT_NAME>ORBCOMM FM36</OBJECT_NAME><OBJECT_ID>1999-065E</OBJECT_ID><CENTER_NAME>EARTH</CENTER_NAME><REF_FRAME>TEME</REF_FRAME><TIME_SYSTEM>UTC</TIME_SYSTEM><MEAN_ELEMENT_THEORY>SGP4</MEAN_ELEMENT_THEORY></metadata><data><meanElements><EPOCH>2024-08-05T19:54:16.155360</EPOCH><MEAN_MOTION>14.35969358</MEAN_MOTION><ECCENTRICITY>.0002109</ECCENTRICITY><INCLINATION>45.0389</INCLINATION><RA_OF_ASC_NODE>143.2559</RA_OF_ASC_NODE><ARG_OF_PERICENTER>140.1920</ARG_OF_PERICENTER><MEAN_ANOMALY>219.9083</MEAN_ANOMALY></meanElements><tleParameters><EPHEMERIS_TYPE>0</EPHEMERIS_TYPE><CLASSIFICATION_TYPE>U</CLASSIFICATION_TYPE><NORAD_CAT_ID>25984</NORAD_CAT_ID><ELEMENT_SET_NO>999</ELEMENT_SET_NO><REV_AT_EPOCH>28964</REV_AT_EPOCH><BSTAR>.10292E-2</BSTAR><MEAN_MOTION_DOT>.2875E-4</MEAN_MOTION_DOT><MEAN_MOTION_DDOT>0</MEAN_MOTION_DDOT></tleParameters></data></segment></body></omm>
<omm id="CCSDS_OMM_VERS" version="2.0">
<header><CREATION_DATE/><ORIGINATOR/></header><body><segment><metadata><OBJECT_NAME>ORBCOMM FM35</OBJECT_NAME><OBJECT_ID>1999-065F</OBJECT_ID><CENTER_NAME>EARTH</CENTER_NAME><REF_FRAME>TEME</REF_FRAME><TIME_SYSTEM>UTC</TIME_SYSTEM><MEAN_ELEMENT_THEORY>SGP4</MEAN_ELEMENT_THEORY></metadata><data><meanElements><EPOCH>2024-08-05T03:13:41.834208</EPOCH><MEAN_MOTION>14.35439511</MEAN_MOTION><ECCENTRICITY>.0003718</ECCENTRICITY><INCLINATION>45.0388</INCLINATION><RA_OF_ASC_NODE>149.5001</RA_OF_ASC_NODE><ARG_OF_PERICENTER>277.4799</ARG_OF_PERICENTER><MEAN_ANOMALY>82.5626</MEAN_ANOMALY></meanElements><tleParameters><EPHEMERIS_TYPE>0</EPHEMERIS_TYPE><CLASSIFICATION_TYPE>U</CLASSIFICATION_TYPE><NORAD_CAT_ID>25985</NORAD_CAT_ID><ELEMENT_SET_NO>999</ELEMENT_SET_NO><REV_AT_EPOCH>28953</REV_AT_EPOCH><BSTAR>.85236E-3</BSTAR><MEAN_MOTION_DOT>.233E-4</MEAN_MOTION_DOT><MEAN_MOTION_DDOT>0</MEAN_MOTION_DDOT></tleParameters></data></segment></body></omm>
<omm id="CCSDS_OMM_VERS" version="2.0">
<header><CREATION_DATE/><ORIGINATOR/></header><body><segment><metadata><OBJECT_NAME>ORBCOMM FM34</OBJECT_NAME><OBJECT_ID>1999-065G</OBJECT_ID><CENTER_NAME>EARTH</CENTER_NAME><REF_FRAME>TEME</REF_FRAME><TIME_SYSTEM>UTC</TIME_SYSTEM><MEAN_ELEMENT_THEORY>SGP4</MEAN_ELEMENT_THEORY></metadata><data><meanElements><EPOCH>2024-08-05T12:34:44.897664</EPOCH><MEAN_MOTION>14.35422689</MEAN_MOTION><ECCENTRICITY>.000267</ECCENTRICITY><INCLINATION>45.0382</INCLINATION><RA_OF_ASC_NODE>148.2107</RA_OF_ASC_NODE><ARG_OF_PERICENTER>220.8589</ARG_OF_PERICENTER><MEAN_ANOMALY>139.2058</MEAN_ANOMALY></meanElements><tleParameters><EPHEMERIS_TYPE>0</EPHEMERIS_TYPE><CLASSIFICATION_TYPE>U</CLASSIFICATION_TYPE><NORAD_CAT_ID>25986</NORAD_CAT_ID><ELEMENT_SET_NO>999</ELEMENT_SET_NO><REV_AT_EPOCH>28955</REV_AT_EPOCH><BSTAR>.7669E-3</BSTAR><MEAN_MOTION_DOT>.2082E-4</MEAN_MOTION_DOT><MEAN_MOTION_DDOT>0</MEAN_MOTION_DDOT></tleParameters></data></segment></body></omm>
<omm id="CCSDS_OMM_VERS" version="2.0">
<header><CREATION_DATE/><ORIGINATOR/></header><body><segment><metadata><OBJECT_NAME>ORBCOMM FM38</OBJECT_NAME><OBJECT_ID>2008-031A</OBJECT_ID><CENTER_NAME>EARTH</CENTER_NAME><REF_FRAME>TEME</REF_FRAME><TIME_SYSTEM>UTC</TIME_SYSTEM><MEAN_ELEMENT_THEORY>SGP4</MEAN_ELEMENT_THEORY></metadata><data><meanElements><EPOCH>2024-08-05T12:22:17.740704</EPOCH><MEAN_MOTION>14.78130129</MEAN_MOTION><ECCENTRICITY>.0005032</ECCENTRICITY><INCLINATION>48.4419</INCLINATION><RA_OF_ASC_NODE>16.4209</RA_OF_ASC_NODE><ARG_OF_PERICENTER>134.9485</ARG_OF_PERICENTER><MEAN_ANOMALY>225.1838</MEAN_ANOMALY></meanElements><tleParameters><EPHEMERIS_TYPE>0</EPHEMERIS_TYPE><CLASSIFICATION_TYPE>U</CLASSIFICATION_TYPE><NORAD_CAT_ID>33060</NORAD_CAT_ID><ELEMENT_SET_NO>999</ELEMENT_SET_NO><REV_AT_EPOCH>86798</REV_AT_EPOCH><BSTAR>.62493E-3</BSTAR><MEAN_MOTION_DOT>.4366E-4</MEAN_MOTION_DOT><MEAN_MOTION_DDOT>0</MEAN_MOTION_DDOT></tleParameters></data></segment></body></omm>
<omm id="CCSDS_OMM_VERS" version="2.0">
<header><CREATION_DATE/><ORIGINATOR/></header><body><segment><metadata><OBJECT_NAME>ORBCOMM FM41</OBJECT_NAME><OBJECT_ID>2008-031B</OBJECT_ID><CENTER_NAME>EARTH</CENTER_NAME><REF_FRAME>TEME</REF_FRAME><TIME_SYSTEM>UTC</TIME_SYSTEM><MEAN_ELEMENT_THEORY>SGP4</MEAN_ELEMENT_THEORY></metadata><data><meanElements><EPOCH>2024-08-05T20:51:31.987008</EPOCH><MEAN_MOTION>14.77853037</MEAN_MOTION><ECCENTRICITY>.0004081</ECCENTRICITY><INCLINATION>48.4452</INCLINATION><RA_OF_ASC_NODE>21.5734</RA_OF_ASC_NODE><ARG_OF_PERICENTER>122.2813</ARG_OF_PERICENTER><MEAN_ANOMALY>351.1710</MEAN_ANOMALY></meanElements><tleParameters><EPHEMERIS_TYPE>0</EPHEMERIS_TYPE><CLASSIFICATION_TYPE>U</CLASSIFICATION_TYPE><NORAD_CAT_ID>33061</NORAD_CAT_ID><ELEMENT_SET_NO>999</ELEMENT_SET_NO><REV_AT_EPOCH>86798</REV_AT_EPOCH><BSTAR>.61986E-3</BSTAR><MEAN_MOTION_DOT>.4299E-4</MEAN_MOTION_DOT><MEAN_MOTION_DDOT>0</MEAN_MOTION_DDOT></tleParameters></data></segment></body></omm>
<omm id="CCSDS_OMM_VERS" version="2.0">
<header><CREATION_DATE/><ORIGINATOR/></header><body><segment><metadata><OBJECT_NAME>ORBCOMM FM29</OBJECT_NAME><OBJECT_ID>2008-031C</OBJECT_ID><CENTER_NAME>EARTH</CENTER_NAME><REF_FRAME>TEME</REF_FRAME><TIME_SYSTEM>UTC</TIME_SYSTEM><MEAN_ELEMENT_THEORY>SGP4</MEAN_ELEMENT_THEORY></metadata><data><meanElements><EPOCH>2024-08-05T12:16:07.578912</EPOCH><MEAN_MOTION>14.77804137</MEAN_MOTION><ECCENTRICITY>.0005947</ECCENTRICITY><INCLINATION>48.4401</INCLINATION><RA_OF_ASC_NODE>31.3028</RA_OF_ASC_NODE><ARG_OF_PERICENTER>116.1532</ARG_OF_PERICENTER><MEAN_ANOMALY>295.8134</MEAN_ANOMALY></meanElements><tleParameters><EPHEMERIS_TYPE>0</EPHEMERIS_TYPE><CLASSIFICATION_TYPE>U</CLASSIFICATION_TYPE><NORAD_CAT_ID>33062</NORAD_CAT_ID><ELEMENT_SET_NO>999</ELEMENT_SET_NO><REV_AT_EPOCH>86779</REV_AT_EPOCH><BSTAR>.6318E-3</BSTAR><MEAN_MOTION_DOT>.4381E-4</MEAN_MOTION_DOT><MEAN_MOTION_DDOT>0</MEAN_MOTION_DDOT></tleParameters></data></segment></body></omm>
<omm id="CCSDS_OMM_VERS" version="2.0">
<header><CREATION_DATE/><ORIGINATOR/></header><body><segment><metadata><OBJECT_NAME>ORBCOMM FM39</OBJECT_NAME><OBJECT_ID>2008-031D</OBJECT_ID><CENTER_NAME>EARTH</CENTER_NAME><REF_FRAME>TEME</REF_FRAME><TIME_SYSTEM>UTC</TIME_SYSTEM><MEAN_ELEMENT_THEORY>SGP4</MEAN_ELEMENT_THEORY></metadata><data><meanElements><EPOCH>2024-08-05T19:10:10.826688</EPOCH><MEAN_MOTION>14.76729607</MEAN_MOTION><ECCENTRICITY>.0006788</ECCENTRICITY><INCLINATION>48.4407</INCLINATION><RA_OF_ASC_NODE>51.1425</RA_OF_ASC_NODE><ARG_OF_PERICENTER>88.7729</ARG_OF_PERICENTER><MEAN_ANOMALY>271.3963</MEAN_ANOMALY></meanElements><tleParameters><EPHEMERIS_TYPE>0</EPHEMERIS_TYPE><CLASSIFICATION_TYPE>U</CLASSIFICATION_TYPE><NORAD_CAT_ID>33063</NORAD_CAT_ID><ELEMENT_SET_NO>999</ELEMENT_SET_NO><REV_AT_EPOCH>86755</REV_AT_EPOCH><BSTAR>.54539E-3</BSTAR><MEAN_MOTION_DOT>.3656E-4</MEAN_MOTION_DOT><MEAN_MOTION_DDOT>0</MEAN_MOTION_DDOT></tleParameters></data></segment></body></omm>

</ndm>
